QIANFAN-9               
1 60387U 24140J   25199.59145957  .00000120  00000+0  16822-3 0  9990
2 60387  88.9847 314.5272 0014360 260.2873  99.6657 13.50953191 47466
QIANFAN-10              
1 60388U 24140K   25199.59561686  .00000119  00000+0  16536-3 0  9992
2 60388  88.9857 313.8607 0013289 234.4461 125.5452 13.50955666 47592
QIANFAN-11              
1 60389U 24140L   25199.63261542  .00000113  00000+0  15668-3 0  9995
2 60389  88.9783 314.5529 0012399 259.4328 100.5427 13.50955730 47252
QIANFAN-12              
1 60390U 24140M   25199.57906887  .00000129  00000+0  18145-3 0  9998
2 60390  88.9826 314.5375 0011124 268.8954  91.0923 13.50955557 47370
QIANFAN-13              
1 60391U 24140N   25199.62434901  .00000118  00000+0  16443-3 0  9995
2 60391  88.9839 314.6146 0010927 271.8192  88.1707 13.50955335 47405
QIANFAN-14              
1 60392U 24140P   25199.57493350  .00000131  00000+0  18441-3 0  9998
2 60392  88.9817 314.5488 0014611 272.3057  87.6421 13.50956426 47409
QIANFAN-15              
1 60393U 24140Q   25199.58326307  .00000124  00000+0  17319-3 0  9992
2 60393  88.9841 314.4696 0010562 255.5647 104.4332 13.50953306 47397
QIANFAN-16              
1 60394U 24140R   25199.57091768  .00000131  00000+0  18514-3 0  9998
2 60394  88.9844 314.5864 0012532 276.7412  83.2313 13.50955553 47303
